[{"OBJECT_NAME":"STARLINK-4036","OBJECT_ID":"2022-062H","EPOCH":"2026-03-09T06:47:09.455712","MEAN_MOTION":15.08839442,"ECCENTRICITY":0.00013992,"INCLINATION":53.2191,"RA_OF_ASC_NODE":35.9468,"ARG_OF_PERICENTER":89.3265,"MEAN_ANOMALY":270.7887,"EPHEMERIS_TYPE":0,"CLASSIFICATION_TYPE":"U","NORAD_CAT_ID":52837,"ELEMENT_SET_NO":999,"REV_AT_EPOCH":20572,"BSTAR":-7.7035454e-5,"MEAN_MOTION_DOT":-1.514e-5,"MEAN_MOTION_DDOT":0},{"OBJECT_NAME":"CZ-6A DEB","OBJECT_ID":"2024-140AAU","EPOCH":"2026-03-09T16:48:50.985504","MEAN_MOTION":14.99127941,"ECCENTRICITY":0.00591225,"INCLINATION":89.196,"RA_OF_ASC_NODE":296.0099,"ARG_OF_PERICENTER":104.8686,"MEAN_ANOMALY":255.9106,"EPHEMERIS_TYPE":0,"CLASSIFICATION_TYPE":"U","NORAD_CAT_ID":61486,"ELEMENT_SET_NO":999,"REV_AT_EPOCH":8015,"BSTAR":0.0049724997,"MEAN_MOTION_DOT":0.00063139,"MEAN_MOTION_DDOT":0}]
